OBJECT_NAME,OBJECT_ID,EPOCH,MEAN_MOTION,ECCENTRICITY,INCLINATION,RA_OF_ASC_NODE,ARG_OF_PERICENTER,MEAN_ANOMALY,EPHEMERIS_TYPE,CLASSIFICATION_TYPE,NORAD_CAT_ID,ELEMENT_SET_NO,REV_AT_EPOCH,BSTAR,MEAN_MOTION_DOT,MEAN_MOTION_DDOT
STARLINK-37422,2026-114K,2026-06-26T22:00:01.999584,15.49299241,.0001713,53.1598,154.2840,67.6738,166.7628,0,U,69191,999,611,.1209939E-2,.67404E-3,0
STARLINK-37424,2026-114L,2026-06-26T22:00:01.999584,15.54596009,.00014075,53.1603,154.1850,111.0402,174.2282,0,U,69192,999,611,-.41696534E-1,-.244302E-1,0
STARLINK-36666,2026-114M,2026-06-26T22:00:01.999584,15.49268877,.00014662,53.1586,154.5143,117.1166,3.9278,0,U,69193,999,605,.12479806E-2,.69481E-3,0
STARLINK-37355,2026-114N,2026-06-26T22:00:01.999584,15.49267793,.00015105,53.1595,154.3288,95.7006,116.8559,0,U,69194,999,611,.12360208E-2,.68802E-3,0
STARLINK-37166,2026-114P,2026-06-26T22:00:01.999584,15.49269768,.00011945,53.1587,154.4444,98.0572,57.1611,0,U,69195,999,589,.12098061E-2,.67325E-3,0
STARLINK-36933,2026-114Q,2026-06-26T22:00:01.999584,15.49271068,.00010802,53.1601,154.1998,81.1795,194.6902,0,U,69196,999,606,.12567219E-2,.6998E-3,0
STARLINK-37419,2026-114R,2026-06-26T22:00:01.999584,15.49265103,.00011,53.1599,154.1389,96.4090,209.1094,0,U,69197,999,611,.1266382E-2,.70511E-3,0
STARLINK-37321,2026-114S,2026-06-26T22:00:01.999584,15.49272523,.00013007,53.1600,154.1253,74.3134,238.2148,0,U,69198,999,611,.1333096E-2,.74306E-3,0
STARLINK-37406,2026-114T,2026-06-26T22:00:01.999584,15.49267211,.00013228,53.1588,155.0432,96.7158,122.8538,0,U,69199,999,611,.12609049E-2,.70207E-3,0
STARLINK-37761,2026-114U,2026-06-26T22:00:01.999584,15.49266665,.00013273,53.1594,155.0377,95.7729,126.3602,0,U,69200,999,611,.12617988E-2,.70256E-3,0
STARLINK-37754,2026-114V,2026-06-26T22:00:01.999584,15.49270108,.00013374,53.1595,154.8700,96.8978,207.7017,0,U,69201,999,611,.12456935E-2,.69354E-3,0
STARLINK-37649,2026-114W,2026-06-23T22:56:16.569312,15.69201844,.00014987,53.1586,168.2553,18.6894,341.4178,0,U,69202,999,584,-.96429053E-2,-.1030525E-1,0
STARLINK-37604,2026-114X,2026-06-26T22:00:01.999584,15.49270415,.00009399,53.1596,154.2882,80.9175,150.7420,0,U,69203,999,611,.11728191E-2,.65236E-3,0
STARLINK-37669,2026-114Y,2026-06-26T22:00:01.999584,15.49270757,.00012856,53.1594,154.8668,98.3599,207.5564,0,U,69204,999,611,.12558573E-2,.69931E-3,0
STARLINK-37691,2026-114Z,2026-06-26T09:49:44.923872,15.56121991,.0002593,53.1591,156.5557,31.3059,328.8107,0,U,69205,999,622,-.83899E-2,-.557492E-2,0
STARLINK-37671,2026-114AA,2026-06-26T15:33:29.774592,15.59725269,.00017547,53.1584,155.1973,121.1900,238.9285,0,U,69206,999,626,.11889116E-2,.97507E-3,0
STARLINK-37647,2026-114AB,2026-06-26T22:00:01.999584,15.49295578,.00019218,53.1595,154.2704,133.0136,106.9787,0,U,69207,999,611,.11769725E-2,.65531E-3,0
STARLINK-37562,2026-114AC,2026-06-26T11:45:39.542400,15.49327432,.0000671,53.1596,156.3516,64.6894,295.4185,0,U,69208,999,624,-.44609E-3,-.25193E-3,0
STARLINK-37682,2026-114AD,2026-06-26T22:00:01.999584,15.51302536,.00006053,53.1593,153.8291,120.4516,336.9527,0,U,69209,999,611,-.47320997E-1,-.2504991E-1,0
STARLINK-37402,2026-114AE,2026-06-26T23:02:49.476768,15.54285990,.00012324,53.1585,153.5819,122.0414,238.0717,0,U,69210,999,631,-.84390256E-2,-.525843E-2,0
STARLINK-37613,2026-115A,2026-06-26T22:49:55.449408,15.49242575,.0000898,97.2843,195.1575,77.7586,282.3765,0,U,69211,999,617,.14316676E-2,.78703E-3,0
STARLINK-37713,2026-115B,2026-06-26T22:24:37.173312,15.35187743,.00014012,97.2841,195.1837,99.0562,261.0841,0,U,69212,999,617,-.30498497E-1,-.951248E-2,0
STARLINK-37716,2026-115C,2026-06-26T22:00:01.999584,15.33418300,.0001727,97.2849,195.1659,104.7380,146.5123,0,U,69213,999,609,.27245285E-2,.8885E-3,0
STARLINK-37620,2026-115D,2026-06-26T23:10:28.547616,15.49243601,.00003862,97.2822,195.1372,292.8543,67.2667,0,U,69214,999,617,.13318152E-2,.73158E-3,0
STARLINK-37700,2026-115E,2026-06-26T22:32:10.882176,15.49243483,.0000375,97.2835,195.0205,132.4854,227.6429,0,U,69215,999,616,.13061078E-2,.71731E-3,0
STARLINK-37766,2026-115F,2026-06-26T22:00:01.999584,15.33405807,.00013348,97.2850,195.1960,86.2435,240.0421,0,U,69216,999,609,.21427459E-2,.69656E-3,0
STARLINK-37763,2026-115G,2026-06-26T22:00:01.999584,15.33408297,.00019365,97.2848,195.2004,54.0361,287.3250,0,U,69217,999,609,.19829973E-2,.64419E-3,0
STARLINK-37724,2026-115H,2026-06-26T22:00:01.999584,15.33403712,.00012718,97.2851,195.2096,91.1391,265.1524,0,U,69218,999,609,.20348454E-2,.66109E-3,0
STARLINK-37758,2026-115J,2026-06-26T22:00:01.999584,15.33400924,.00015097,97.2848,195.2216,87.0520,299.2353,0,U,69219,999,609,.20999826E-2,.68241E-3,0
STARLINK-37201,2026-115K,2026-06-26T22:00:01.999584,15.33416203,.00015738,97.2849,195.2161,119.1433,252.1140,0,U,69220,999,609,.19234655E-2,.62481E-3,0
