STARLINK-37422          
1 69191U 26114K   26177.91668981  .00067404  00000+0  12099-2 0  9994
2 69191  53.1598 154.2840 0001713  67.6738 166.7628 15.49299241  6112
STARLINK-37424          
1 69192U 26114L   26177.91668981 -.02443020  00000+0 -41697-1 0  9996
2 69192  53.1603 154.1850 0001407 111.0402 174.2282 15.54596009  6110
STARLINK-36666          
1 69193U 26114M   26177.91668981  .00069481  00000+0  12480-2 0  9997
2 69193  53.1586 154.5143 0001466 117.1166   3.9278 15.49268877  6058
STARLINK-37355          
1 69194U 26114N   26177.91668981  .00068802  00000+0  12360-2 0  9991
2 69194  53.1595 154.3288 0001510  95.7006 116.8559 15.49267793  6110
STARLINK-37166          
1 69195U 26114P   26177.91668981  .00067325  00000+0  12098-2 0  9999
2 69195  53.1587 154.4444 0001194  98.0572  57.1611 15.49269768  5893
STARLINK-36933          
1 69196U 26114Q   26177.91668981  .00069980  00000+0  12567-2 0  9990
2 69196  53.1601 154.1998 0001080  81.1795 194.6902 15.49271068  6062
STARLINK-37419          
1 69197U 26114R   26177.91668981  .00070511  00000+0  12664-2 0  9991
2 69197  53.1599 154.1389 0001100  96.4090 209.1094 15.49265103  6116
STARLINK-37321          
1 69198U 26114S   26177.91668981  .00074306  00000+0  13331-2 0  9990
2 69198  53.1600 154.1253 0001300  74.3134 238.2148 15.49272523  6113
STARLINK-37406          
1 69199U 26114T   26177.91668981  .00070207  00000+0  12609-2 0  9994
2 69199  53.1588 155.0432 0001322  96.7158 122.8538 15.49267211  6115
STARLINK-37761          
1 69200U 26114U   26177.91668981  .00070256  00000+0  12618-2 0  9991
2 69200  53.1594 155.0377 0001327  95.7729 126.3602 15.49266665  6114
STARLINK-37754          
1 69201U 26114V   26177.91668981  .00069354  00000+0  12457-2 0  9990
2 69201  53.1595 154.8700 0001337  96.8978 207.7017 15.49270108  6113
STARLINK-37649          
1 69202U 26114W   26174.95574733 -.01030525  00000+0 -96429-2 0  9995
2 69202  53.1586 168.2553 0001498  18.6894 341.4178 15.69201844  5842
STARLINK-37604          
1 69203U 26114X   26177.91668981  .00065236  00000+0  11728-2 0  9997
2 69203  53.1596 154.2882 0000939  80.9175 150.7420 15.49270415  6117
STARLINK-37669          
1 69204U 26114Y   26177.91668981  .00069931  00000+0  12559-2 0  9997
2 69204  53.1594 154.8668 0001285  98.3599 207.5564 15.49270757  6111
STARLINK-37691          
1 69205U 26114Z   26177.40954773 -.00557492  00000+0 -83899-2 0  9990
2 69205  53.1591 156.5557 0002593  31.3059 328.8107 15.56121991  6221
STARLINK-37671          
1 69206U 26114AA  26177.64826128  .00097507  00000+0  11889-2 0  9993
2 69206  53.1584 155.1973 0001754 121.1900 238.9285 15.59725269  6265
STARLINK-37647          
1 69207U 26114AB  26177.91668981  .00065531  00000+0  11770-2 0  9996
2 69207  53.1595 154.2704 0001921 133.0136 106.9787 15.49295578  6118
STARLINK-37562          
1 69208U 26114AC  26177.49004100 -.00025193  00000+0 -44609-3 0  9997
2 69208  53.1596 156.3516 0000671  64.6894 295.4185 15.49327432  6240
STARLINK-37682          
1 69209U 26114AD  26177.91668981 -.02504991  00000+0 -47321-1 0  9990
2 69209  53.1593 153.8291 0000605 120.4516 336.9527 15.51302536  6117
STARLINK-37402          
1 69210U 26114AE  26177.96029487 -.00525843  00000+0 -84390-2 0  9994
2 69210  53.1585 153.5819 0001232 122.0414 238.0717 15.54285990  6317
STARLINK-37613          
1 69211U 26115A   26177.95133622  .00078703  00000+0  14317-2 0  9990
2 69211  97.2843 195.1575 0000898  77.7586 282.3765 15.49242575  6173
STARLINK-37713          
1 69212U 26115B   26177.93376358 -.00951248  00000+0 -30498-1 0  9997
2 69212  97.2841 195.1837 0001401  99.0562 261.0841 15.35187743  6174
STARLINK-37716          
1 69213U 26115C   26177.91668981  .00088850  00000+0  27245-2 0  9997
2 69213  97.2849 195.1659 0001727 104.7380 146.5123 15.33418300  6093
STARLINK-37620          
1 69214U 26115D   26177.96560819  .00073158  00000+0  13318-2 0  9995
2 69214  97.2822 195.1372 0000386 292.8543  67.2667 15.49243601  6175
STARLINK-37700          
1 69215U 26115E   26177.93901484  .00071731  00000+0  13061-2 0  9990
2 69215  97.2835 195.0205 0000375 132.4854 227.6429 15.49243483  6161
STARLINK-37766          
1 69216U 26115F   26177.91668981  .00069656  00000+0  21427-2 0  9999
2 69216  97.2850 195.1960 0001334  86.2435 240.0421 15.33405807  6091
STARLINK-37763          
1 69217U 26115G   26177.91668981  .00064419  00000+0  19830-2 0  9997
2 69217  97.2848 195.2004 0001936  54.0361 287.3250 15.33408297  6098
STARLINK-37724          
1 69218U 26115H   26177.91668981  .00066109  00000+0  20348-2 0  9992
2 69218  97.2851 195.2096 0001271  91.1391 265.1524 15.33403712  6096
STARLINK-37758          
1 69219U 26115J   26177.91668981  .00068241  00000+0  21000-2 0  9998
2 69219  97.2848 195.2216 0001509  87.0520 299.2353 15.33400924  6099
STARLINK-37201          
1 69220U 26115K   26177.91668981  .00062481  00000+0  19235-2 0  9997
2 69220  97.2849 195.2161 0001573 119.1433 252.1140 15.33416203  6091
